[{"OBJECT_NAME":"SPAWAR-CAL-R","OBJECT_ID":"2018-099U","EPOCH":"2026-03-08T15:37:40.202400","MEAN_MOTION":15.05212097,"ECCENTRICITY":0.00197014,"INCLINATION":97.4524,"RA_OF_ASC_NODE":111.5817,"ARG_OF_PERICENTER":348.9052,"MEAN_ANOMALY":11.1737,"EPHEMERIS_TYPE":0,"CLASSIFICATION_TYPE":"U","NORAD_CAT_ID":43776,"ELEMENT_SET_NO":999,"REV_AT_EPOCH":39687,"BSTAR":0.00025335573,"MEAN_MOTION_DOT":3.57e-5,"MEAN_MOTION_DDOT":0},{"OBJECT_NAME":"STARLINK-4437","OBJECT_ID":"2022-099AT","EPOCH":"2026-03-09T21:54:53.695872","MEAN_MOTION":15.05661883,"ECCENTRICITY":5.728e-5,"INCLINATION":97.6026,"RA_OF_ASC_NODE":191.3997,"ARG_OF_PERICENTER":130.4613,"MEAN_ANOMALY":229.6664,"EPHEMERIS_TYPE":0,"CLASSIFICATION_TYPE":"U","NORAD_CAT_ID":53506,"ELEMENT_SET_NO":999,"REV_AT_EPOCH":19608,"BSTAR":-0.00012770879,"MEAN_MOTION_DOT":-1.903e-5,"MEAN_MOTION_DDOT":0}]
