SPAWAR-CAL-R            
1 43776U 18099U   26067.65115975  .00003570  00000+0  25336-3 0  9990
2 43776  97.4524 111.5817 0019701 348.9052  11.1737 15.05212097396878
STARLINK-4437           
1 53506U 22099AT  26068.91312148 -.00001903  00000+0 -12771-3 0  9997
2 53506  97.6026 191.3997 0000573 130.4613 229.6664 15.05661883196085
